CCSDS_OMM_VERS = 2.0
CREATION_DATE  = 
ORIGINATOR     = 

OBJECT_NAME    = TRANSPORTER-15CL
OBJECT_ID      = 2025-276CL
CENTER_NAME    = EARTH
REF_FRAME      = TEME
TIME_SYSTEM    = UTC
MEAN_ELEMENT_THEORY = SGP/SGP4

EPOCH          = 2025-12-26T13:44:45.587904
MEAN_MOTION    = 15.18656442
ECCENTRICITY   = .00022132
INCLINATION    = 97.4398
RA_OF_ASC_NODE = 72.1242
ARG_OF_PERICENTER = 206.7344
MEAN_ANOMALY   = 153.3776

EPHEMERIS_TYPE = 0
CLASSIFICATION_TYPE = U
NORAD_CAT_ID   = 66748
ELEMENT_SET_NO = 999
REV_AT_EPOCH   = 422
BSTAR          = .10287358E-2
MEAN_MOTION_DOT = .21293E-3
MEAN_MOTION_DDOT = 0

CCSDS_OMM_VERS = 2.0
CREATION_DATE  = 
ORIGINATOR     = 

OBJECT_NAME    = TRANSPORTER-15CM
OBJECT_ID      = 2025-276CM
CENTER_NAME    = EARTH
REF_FRAME      = TEME
TIME_SYSTEM    = UTC
MEAN_ELEMENT_THEORY = SGP/SGP4

EPOCH          = 2025-12-26T13:53:38.655168
MEAN_MOTION    = 15.17924739
ECCENTRICITY   = .00022084
INCLINATION    = 97.4393
RA_OF_ASC_NODE = 72.1131
ARG_OF_PERICENTER = 175.8088
MEAN_ANOMALY   = 184.3165

EPHEMERIS_TYPE = 0
CLASSIFICATION_TYPE = U
NORAD_CAT_ID   = 66749
ELEMENT_SET_NO = 999
REV_AT_EPOCH   = 422
BSTAR          = .37610786E-3
MEAN_MOTION_DOT = .7566E-4
MEAN_MOTION_DDOT = 0

CCSDS_OMM_VERS = 2.0
CREATION_DATE  = 
ORIGINATOR     = 

OBJECT_NAME    = TRANSPORTER-15CN
OBJECT_ID      = 2025-276CN
CENTER_NAME    = EARTH
REF_FRAME      = TEME
TIME_SYSTEM    = UTC
MEAN_ELEMENT_THEORY = SGP/SGP4

EPOCH          = 2025-12-26T15:23:37.065408
MEAN_MOTION    = 15.18022276
ECCENTRICITY   = .00045229
INCLINATION    = 97.4459
RA_OF_ASC_NODE = 72.1963
ARG_OF_PERICENTER = 62.4552
MEAN_ANOMALY   = 297.7141

EPHEMERIS_TYPE = 0
CLASSIFICATION_TYPE = U
NORAD_CAT_ID   = 66750
ELEMENT_SET_NO = 999
REV_AT_EPOCH   = 423
BSTAR          = .74451864E-3
MEAN_MOTION_DOT = .15103E-3
MEAN_MOTION_DDOT = 0

CCSDS_OMM_VERS = 2.0
CREATION_DATE  = 
ORIGINATOR     = 

OBJECT_NAME    = ICEYE-X58
OBJECT_ID      = 2025-276CP
CENTER_NAME    = EARTH
REF_FRAME      = TEME
TIME_SYSTEM    = UTC
MEAN_ELEMENT_THEORY = SGP/SGP4

EPOCH          = 2025-12-26T13:54:24.972480
MEAN_MOTION    = 15.17835415
ECCENTRICITY   = .00026885
INCLINATION    = 97.4405
RA_OF_ASC_NODE = 72.1210
ARG_OF_PERICENTER = 190.7455
MEAN_ANOMALY   = 169.3722

EPHEMERIS_TYPE = 0
CLASSIFICATION_TYPE = U
NORAD_CAT_ID   = 66751
ELEMENT_SET_NO = 999
REV_AT_EPOCH   = 422
BSTAR          = .28561986E-3
MEAN_MOTION_DOT = .5714E-4
MEAN_MOTION_DDOT = 0

CCSDS_OMM_VERS = 2.0
CREATION_DATE  = 
ORIGINATOR     = 

OBJECT_NAME    = ICEYE-X59
OBJECT_ID      = 2025-276CQ
CENTER_NAME    = EARTH
REF_FRAME      = TEME
TIME_SYSTEM    = UTC
MEAN_ELEMENT_THEORY = SGP/SGP4

EPOCH          = 2025-12-26T13:59:29.528160
MEAN_MOTION    = 15.17636626
ECCENTRICITY   = .00021083
INCLINATION    = 97.4399
RA_OF_ASC_NODE = 72.1159
ARG_OF_PERICENTER = 216.2083
MEAN_ANOMALY   = 143.9008

EPHEMERIS_TYPE = 0
CLASSIFICATION_TYPE = U
NORAD_CAT_ID   = 66752
ELEMENT_SET_NO = 999
REV_AT_EPOCH   = 422
BSTAR          = .26710105E-3
MEAN_MOTION_DOT = .5308E-4
MEAN_MOTION_DDOT = 0

CCSDS_OMM_VERS = 2.0
CREATION_DATE  = 
ORIGINATOR     = 

OBJECT_NAME    = ICEYE-X60
OBJECT_ID      = 2025-276CR
CENTER_NAME    = EARTH
REF_FRAME      = TEME
TIME_SYSTEM    = UTC
MEAN_ELEMENT_THEORY = SGP/SGP4

EPOCH          = 2025-12-26T14:05:40.660224
MEAN_MOTION    = 15.17421804
ECCENTRICITY   = .00011593
INCLINATION    = 97.4401
RA_OF_ASC_NODE = 72.1064
ARG_OF_PERICENTER = 246.2662
MEAN_ANOMALY   = 113.8450

EPHEMERIS_TYPE = 0
CLASSIFICATION_TYPE = U
NORAD_CAT_ID   = 66753
ELEMENT_SET_NO = 999
REV_AT_EPOCH   = 422
BSTAR          = .43663795E-3
MEAN_MOTION_DOT = .867E-4
MEAN_MOTION_DDOT = 0

CCSDS_OMM_VERS = 2.0
CREATION_DATE  = 
ORIGINATOR     = 

OBJECT_NAME    = ICEYE-X61
OBJECT_ID      = 2025-276CS
CENTER_NAME    = EARTH
REF_FRAME      = TEME
TIME_SYSTEM    = UTC
MEAN_ELEMENT_THEORY = SGP/SGP4

EPOCH          = 2025-12-26T13:53:00.862944
MEAN_MOTION    = 15.17865974
ECCENTRICITY   = .00027131
INCLINATION    = 97.4398
RA_OF_ASC_NODE = 72.1170
ARG_OF_PERICENTER = 179.2267
MEAN_ANOMALY   = 180.8972

EPHEMERIS_TYPE = 0
CLASSIFICATION_TYPE = U
NORAD_CAT_ID   = 66754
ELEMENT_SET_NO = 999
REV_AT_EPOCH   = 422
BSTAR          = -.909286E-4
MEAN_MOTION_DOT = -.1906E-4
MEAN_MOTION_DDOT = 0

CCSDS_OMM_VERS = 2.0
CREATION_DATE  = 
ORIGINATOR     = 

OBJECT_NAME    = ICEYE-X62
OBJECT_ID      = 2025-276CT
CENTER_NAME    = EARTH
REF_FRAME      = TEME
TIME_SYSTEM    = UTC
MEAN_ELEMENT_THEORY = SGP/SGP4

EPOCH          = 2025-12-26T13:59:49.642080
MEAN_MOTION    = 15.17657068
ECCENTRICITY   = .00012668
INCLINATION    = 97.4400
RA_OF_ASC_NODE = 72.1102
ARG_OF_PERICENTER = 204.3978
MEAN_ANOMALY   = 155.7196

EPHEMERIS_TYPE = 0
CLASSIFICATION_TYPE = U
NORAD_CAT_ID   = 66755
ELEMENT_SET_NO = 999
REV_AT_EPOCH   = 422
BSTAR          = .27629235E-3
MEAN_MOTION_DOT = .5496E-4
MEAN_MOTION_DDOT = 0

CCSDS_OMM_VERS = 2.0
CREATION_DATE  = 
ORIGINATOR     = 

OBJECT_NAME    = TRANSPORTER-15CU
OBJECT_ID      = 2025-276CU
CENTER_NAME    = EARTH
REF_FRAME      = TEME
TIME_SYSTEM    = UTC
MEAN_ELEMENT_THEORY = SGP/SGP4

EPOCH          = 2025-12-26T13:51:07.110432
MEAN_MOTION    = 15.17986056
ECCENTRICITY   = .00018408
INCLINATION    = 97.4406
RA_OF_ASC_NODE = 72.1228
ARG_OF_PERICENTER = 150.8996
MEAN_ANOMALY   = 209.2341

EPHEMERIS_TYPE = 0
CLASSIFICATION_TYPE = U
NORAD_CAT_ID   = 66756
ELEMENT_SET_NO = 999
REV_AT_EPOCH   = 422
BSTAR          = .31851091E-3
MEAN_MOTION_DOT = .6408E-4
MEAN_MOTION_DDOT = 0

CCSDS_OMM_VERS = 2.0
CREATION_DATE  = 
ORIGINATOR     = 

OBJECT_NAME    = TRANSPORTER-15CV
OBJECT_ID      = 2025-276CV
CENTER_NAME    = EARTH
REF_FRAME      = TEME
TIME_SYSTEM    = UTC
MEAN_ELEMENT_THEORY = SGP/SGP4

EPOCH          = 2025-12-26T05:54:03.004704
MEAN_MOTION    = 15.18289271
ECCENTRICITY   = .00028631
INCLINATION    = 97.4409
RA_OF_ASC_NODE = 71.8035
ARG_OF_PERICENTER = 298.0607
MEAN_ANOMALY   = 62.0337

EPHEMERIS_TYPE = 0
CLASSIFICATION_TYPE = U
NORAD_CAT_ID   = 66757
ELEMENT_SET_NO = 999
REV_AT_EPOCH   = 417
BSTAR          = .52115974E-2
MEAN_MOTION_DOT = .108292E-2
MEAN_MOTION_DDOT = 0

CCSDS_OMM_VERS = 2.0
CREATION_DATE  = 
ORIGINATOR     = 

OBJECT_NAME    = TRANSPORTER-15CW
OBJECT_ID      = 2025-276CW
CENTER_NAME    = EARTH
REF_FRAME      = TEME
TIME_SYSTEM    = UTC
MEAN_ELEMENT_THEORY = SGP/SGP4

EPOCH          = 2025-12-26T13:48:15.424128
MEAN_MOTION    = 15.18119766
ECCENTRICITY   = .00015543
INCLINATION    = 97.4386
RA_OF_ASC_NODE = 72.1178
ARG_OF_PERICENTER = 136.2894
MEAN_ANOMALY   = 223.8463

EPHEMERIS_TYPE = 0
CLASSIFICATION_TYPE = U
NORAD_CAT_ID   = 66758
ELEMENT_SET_NO = 999
REV_AT_EPOCH   = 422
BSTAR          = .35694652E-3
MEAN_MOTION_DOT = .7218E-4
MEAN_MOTION_DDOT = 0

CCSDS_OMM_VERS = 2.0
CREATION_DATE  = 
ORIGINATOR     = 

OBJECT_NAME    = TRANSPORTER-15CX
OBJECT_ID      = 2025-276CX
CENTER_NAME    = EARTH
REF_FRAME      = TEME
TIME_SYSTEM    = UTC
MEAN_ELEMENT_THEORY = SGP/SGP4

EPOCH          = 2025-12-26T12:10:29.179488
MEAN_MOTION    = 15.18261229
ECCENTRICITY   = .00016711
INCLINATION    = 97.4401
RA_OF_ASC_NODE = 72.0556
ARG_OF_PERICENTER = 150.7258
MEAN_ANOMALY   = 209.4070

EPHEMERIS_TYPE = 0
CLASSIFICATION_TYPE = U
NORAD_CAT_ID   = 66759
ELEMENT_SET_NO = 999
REV_AT_EPOCH   = 421
BSTAR          = -.16437629E-2
MEAN_MOTION_DOT = -.33558E-3
MEAN_MOTION_DDOT = 0

