TRANSPORTER-15CL        
1 66748U 25276CL  25360.57274986  .00021293  00000+0  10287-2 0  9993
2 66748  97.4398  72.1242 0002213 206.7344 153.3776 15.18656442  4227
TRANSPORTER-15CM        
1 66749U 25276CM  25360.57891962  .00007566  00000+0  37611-3 0  9991
2 66749  97.4393  72.1131 0002208 175.8088 184.3165 15.17924739  4227
TRANSPORTER-15CN        
1 66750U 25276CN  25360.64140122  .00015103  00000+0  74452-3 0  9996
2 66750  97.4459  72.1963 0004522  62.4552 297.7141 15.18022276  4233
ICEYE-X58               
1 66751U 25276CP  25360.57945570  .00005714  00000+0  28562-3 0  9997
2 66751  97.4405  72.1210 0002688 190.7455 169.3722 15.17835415  4222
ICEYE-X59               
1 66752U 25276CQ  25360.58298065  .00005308  00000+0  26710-3 0  9991
2 66752  97.4399  72.1159 0002108 216.2083 143.9008 15.17636626  4223
ICEYE-X60               
1 66753U 25276CR  25360.58727616  .00008670  00000+0  43664-3 0  9993
2 66753  97.4401  72.1064 0001159 246.2662 113.8450 15.17421804  4221
ICEYE-X61               
1 66754U 25276CS  25360.57848221 -.00001906  00000+0 -90929-4 0  9993
2 66754  97.4398  72.1170 0002713 179.2267 180.8972 15.17865974  4221
ICEYE-X62               
1 66755U 25276CT  25360.58321345  .00005496  00000+0  27629-3 0  9990
2 66755  97.4400  72.1102 0001266 204.3978 155.7196 15.17657068  4224
TRANSPORTER-15CU        
1 66756U 25276CU  25360.57716563  .00006408  00000+0  31851-3 0  9996
2 66756  97.4406  72.1228 0001840 150.8996 209.2341 15.17986056  4222
TRANSPORTER-15CV        
1 66757U 25276CV  25360.24586811  .00108292  00000+0  52116-2 0  9992
2 66757  97.4409  71.8035 0002863 298.0607  62.0337 15.18289271  4178
TRANSPORTER-15CW        
1 66758U 25276CW  25360.57517852  .00007218  00000+0  35695-3 0  9998
2 66758  97.4386  72.1178 0001554 136.2894 223.8463 15.18119766  4226
TRANSPORTER-15CX        
1 66759U 25276CX  25360.50728217 -.00033558  00000+0 -16438-2 0  9992
2 66759  97.4401  72.0556 0001671 150.7258 209.4070 15.18261229  4214
